{"spkid": "50826917", "covariance": {"epoch": "2457896.5", "labels": ["e", "q", "tp", "node", "peri", "i"], "data": [["8.628775973304243E-16", "-1.83641348739656E-15", "-1.363248888450121E-13", "-5.365320029533828E-14", "-3.629952069687249E-14", "9.300046777087333E-16"], ["-1.83641348739656E-15", "3.946810253549797E-15", "2.701006250462222E-13", "1.077934573686999E-13", "5.38440553064888E-14", "-2.652801214966029E-15"], ["-1.363248888450121E-13", "2.701006250462222E-13", "6.65393120038141E-11", "2.573995181652292E-11", "3.587954851666282E-11", "-2.480133162228921E-14"], ["-5.365320029533828E-14", "1.077934573686999E-13", "2.573995181652292E-11", "6.992082853298655E-9", "-6.969098667032974E-9", "-8.223105798181875E-11"], ["-3.629952069687249E-14", "5.38440553064888E-14", "3.587954851666282E-11", "-6.969098667032974E-9", "7.017845471324647E-9", "8.277778752637979E-11"], ["9.300046777087333E-16", "-2.652801214966029E-15", "-2.480133162228921E-14", "-8.223105798181875E-11", "8.277778752637979E-11", "3.734735682369331E-11"]], "elements": [{"label": "e", "units": null, "title": "eccentricity", "value": ".6131352847370023", "sigma": 2.93747782515958e-08, "name": "e"}, {"name": "q", "sigma": 6.28236440645542e-08, "value": ".8808125370926898", "title": "perihelion distance", "units": "au", "label": "q"}, {"sigma": 8.15716323263266e-06, "name": "tp", "units": "TDB", "value": "2458423.209958308746", "title": "time of perihelion passage", "label": "tp"}, {"label": "node", "name": "om", "sigma": 8.36186752663462e-05, "title": "longitude of the ascending node", "value": "354.7181391893821", "units": "deg"}, {"title": "argument of perihelion", "value": "64.77802995053086", "units": "deg", "sigma": 8.37725818590107e-05, "name": "w", "label": "peri"}, {"name": "i", "sigma": 6.11124838504322e-06, "units": "deg", "title": "inclination", "value": "1.326092520780497", "label": "i"}]}, "elements": [{"sigma": "2.9527E-8", "name": "e", "units": null, "title": "eccentricity", "value": ".6126193713753234", "label": "e"}, {"label": "a", "sigma": "1.8298E-8", "name": "a", "units": "au", "title": "semi-major axis", "value": "2.275922180943405"}, {"units": "au", "title": "perihelion distance", "value": ".8816481651547012", "name": "q", "sigma": "6.3439E-8", "label": "q"}, {"title": "inclination; angle with respect to x-y ecliptic plane", "value": "1.324254736650431", "units": "deg", "name": "i", "sigma": "6.1088E-6", "label": "i"}, {"name": "om", "sigma": "8.3718E-5", "units": "deg", "title": "longitude of the ascending node", "value": "354.5389174206522", "label": "node"}, {"label": "peri", "value": "64.94798248913129", "title": "argument of perihelion", "units": "deg", "name": "w", "sigma": "8.3869E-5"}, {"label": "M", "name": "ma", "sigma": "8.4873E-6", "units": "deg", "title": "mean anomaly", "value": "77.23777518555679"}, {"label": "tp", "value": "2460931.432158788479", "title": "time of perihelion passage", "units": "TDB", "sigma": "2.6407E-5", "name": "tp"}, {"value": "1254.106848668796", "title": "sidereal orbital period", "units": "d", "sigma": "1.5124E-5", "name": "per", "label": "period"}, {"title": "mean motion", "value": ".2870568806654163", "units": "deg/d", "name": "n", "sigma": "3.4617E-9", "label": "n"}, {"label": "Q", "sigma": "2.9507E-8", "name": "ad", "units": "au", "title": "aphelion distance", "value": "3.670196196732109"}], "epoch": "2461200.5"}